NORAD_CAT_ID,OBJECT_NAME,OBJECT_TYPE,EPOCH,MEAN_MOTION,ECCENTRICITY,INCLINATION,RA_OF_ASC_NODE,ARG_OF_PERICENTER,MEAN_ANOMALY,BSTAR,MEAN_MOTION_DOT,MEAN_MOTION_DDOT,TLE_LINE0,TLE_LINE1,TLE_LINE2,SEMIMAJOR_AXIS,PERIOD,APOGEE,PERIGEE,DECAYED
51150.0,STARLINK-3357,PAYLOAD,2022-07-27 01:49:44,15.08843702,0.0001876999999999,53.2189,112.0755,57.8563,302.2611,9.903e-05,1.288e-05,0.0,0 STARLINK-3357,1 51150U 22005AY  22208.07621105  .00001288  00000-0  99030-4 0  9991,2 51150  53.2189 112.0755 0001877  57.8563 302.2611 15.08843702 30332,6917.869000000002,95.437,541.033,538.436,0.0
51150.0,STARLINK-3357,PAYLOAD,2022-07-27 16:08:12,15.08843252,0.0001885,53.2189,109.3991,58.2383,301.8793,0.00018438,2.648e-05,0.0,0 STARLINK-3357,1 51150U 22005AY  22208.67236874  .00002648  00000-0  18438-3 0  9995,2 51150  53.2189 109.3991 0001885  58.2383 301.8793 15.08843252 29319,6917.87,95.437,541.039,538.431,0.0
51150.0,STARLINK-3357,PAYLOAD,2022-07-28 01:40:31,15.08841705,0.0001841,53.2189,107.6153,57.2223,302.8947,0.00011096,1.478e-05,0.0,0 STARLINK-3357,1 51150U 22005AY  22209.06981088  .00001478  00000-0  11096-3 0  9996,2 51150  53.2189 107.6153 0001841  57.2223 302.8947 15.08841705 29373,6917.875,95.437,541.014,538.467,0.0
51150.0,STARLINK-3357,PAYLOAD,2022-07-28 15:58:59,15.08852454,0.0002059,53.2191,104.9391,59.8366,300.283,-0.00011631,-2.14e-05,0.0,0 STARLINK-3357,1 51150U 22005AY  22209.66597020 -.00002140  00000-0 -11631-3 0  9995,2 51150  53.2191 104.9391 0002059  59.8366 300.2830 15.08852454 30578,6917.842,95.437,541.132,538.283,0.0
51150.0,STARLINK-3357,PAYLOAD,2022-07-29 09:28:15,15.08832482,0.0001903,53.2189,101.6683,59.3045,300.8134,-5.376600000000001e-05,-1.144e-05,0.0,0 STARLINK-3357,1 51150U 22005AY  22210.39461898 -.00001144  00000-0 -53766-4 0  9999,2 51150  53.2189 101.6683 0001903  59.3045 300.8134 15.08832482 29579,6917.903,95.438,541.085,538.452,0.0
51150.0,STARLINK-3357,PAYLOAD,2022-07-29 17:25:10,15.08839853,0.0001821,53.2189,100.1813,52.4035,307.7123,-7.8075e-05,-1.53e-05,0.0,0 STARLINK-3357,1 51150U 22005AY  22210.72581494 -.00001530  00000-0 -78075-4 0  9990,2 51150  53.2189 100.1813 0001821  52.4035 307.7123 15.08839853 30733,6917.880999999999,95.438,541.006,538.486,0.0
51150.0,STARLINK-3357,PAYLOAD,2022-07-30 09:19:01,15.0883767,0.0001898,53.2189,97.2074,58.3618,301.7559,4.927800000000001e-05,4.96e-06,0.0,0 STARLINK-3357,1 51150U 22005AY  22211.38821290  .00000496  00000-0  49278-4 0  9995,2 51150  53.2189  97.2074 0001898  58.3618 301.7559 15.08837670 29723,6917.888000000001,95.438,541.066,538.439,0.0
51150.0,STARLINK-3357,PAYLOAD,2022-07-30 15:40:33,15.08842784,0.0001902,53.2188,96.0179,60.4299,299.6882,1.2512e-05,-8.9e-07,0.0,0 STARLINK-3357,1 51150U 22005AY  22211.65317128 -.00000089  00000-0  12512-4 0  9995,2 51150  53.2188  96.0179 0001902  60.4299 299.6882 15.08842784 29760,6917.871999999999,95.437,541.053,538.4209999999998,0.0
51150.0,STARLINK-3357,PAYLOAD,2022-07-31 02:48:15,15.08846,0.000193,53.2188,93.9364,69.0943,291.0256,2.2197e-05,6.5e-07,0.0,0 STARLINK-3357,1 51150U 22005AY  22212.11684774  .00000065  00000-0  22197-4 0  9994,2 51150  53.2188  93.9364 0001930  69.0943 291.0256 15.08846000 30942,6917.861999999999,95.437,541.062,538.3919999999998,0.0
51150.0,STARLINK-3357,PAYLOAD,2022-07-31 09:09:48,15.08841756,0.0001859,53.2189,92.7471,60.3375,299.7802,0.00013389,1.843e-05,0.0,0 STARLINK-3357,1 51150U 22005AY  22212.38180718  .00001843  00000-0  13389-3 0  9999,2 51150  53.2189  92.7471 0001859  60.3375 299.7802 15.08841756 29877,6917.875,95.437,541.026,538.4540000000002,0.0
51150.0,STARLINK-3357,PAYLOAD,2022-07-31 15:31:20,15.08841156,0.0001874,53.2191,91.5582,61.2049,298.9131,0.00010597,1.399e-05,0.0,0 STARLINK-3357,1 51150U 22005AY  22212.64676868  .00001399  00000-0  10597-3 0  9998,2 51150  53.2191  91.5582 0001874  61.2049 298.9131 15.08841156 29910,6917.877,95.437,541.038,538.445,0.0
51150.0,STARLINK-3357,PAYLOAD,2022-08-01 01:03:40,15.08832917,0.0001833,53.2191,89.7737,60.9231,299.1945,1.132e-05,-1.08e-06,0.0,0 STARLINK-3357,1 51150U 22005AY  22213.04421775 -.00000108  00000-0  11320-4 0  9992,2 51150  53.2191  89.7737 0001833  60.9231 299.1945 15.08832917 31087,6917.901999999999,95.438,541.035,538.499,0.0
51150.0,STARLINK-3357,PAYLOAD,2022-08-01 09:00:35,15.08836237,0.0001825,53.2192,88.2871,61.4602,298.6573,2.512e-05,1.12e-06,0.0,0 STARLINK-3357,1 51150U 22005AY  22213.37541612  .00000112  00000-0  25120-4 0  9998,2 51150  53.2192  88.2871 0001825  61.4602 298.6573 15.08836237 30023,6917.892,95.438,541.019,538.494,0.0
51150.0,STARLINK-3357,PAYLOAD,2022-08-01 21:43:40,15.08840617,0.0001841,53.2192,85.9082,62.0613,298.0565,3.9107e-05,3.34e-06,0.0,0 STARLINK-3357,1 51150U 22005AY  22213.90533330  .00000334  00000-0  39107-4 0  9991,2 51150  53.2192  85.9082 0001841  62.0613 298.0565 15.08840617 31212,6917.879,95.438,541.0169999999998,538.47,0.0
51150.0,STARLINK-3357,PAYLOAD,2022-08-02 08:51:22,15.08845394,0.0001855999999999,53.2193,83.8268,62.2264,297.8917,3.4246e-05,2.57e-06,0.0,0 STARLINK-3357,1 51150U 22005AY  22214.36900960  .00000257  00000-0  34246-4 0  9992,2 51150  53.2193  83.8268 0001856  62.2264 297.8917 15.08845394 30175,6917.864000000001,95.437,541.013,538.445,0.0
51150.0,STARLINK-3357,PAYLOAD,2022-08-02 19:59:04,15.08846959,0.0001844,53.2193,81.745,63.4253,296.6928,9.701e-05,1.256e-05,0.0,0 STARLINK-3357,1 51150U 22005AY  22214.83268521  .00001256  00000-0  97010-4 0  9992,2 51150  53.2193  81.7450 0001844  63.4253 296.6928 15.08846959 30248,6917.859,95.437,541.0,538.448,0.0
51150.0,STARLINK-3357,PAYLOAD,2022-08-03 00:45:13,15.08858283,0.0001825,53.2192,80.8537,60.5372,299.5802,-6.0225e-05,-1.247e-05,0.0,0 STARLINK-3357,1 51150U 22005AY  22215.03140131 -.00001247  00000-0 -60225-4 0  9991,2 51150  53.2192  80.8537 0001825  60.5372 299.5802 15.08858283 31384,6917.825,95.436,540.952,538.427,0.0
51150.0,STARLINK-3357,PAYLOAD,2022-08-03 08:42:10,15.0883405,0.0001863,53.2189,79.3693,64.3843,295.7341,3.1635000000000007e-06,-2.38e-06,0.0,0 STARLINK-3357,1 51150U 22005AY  22215.36261753 -.00000238  00000-0  31635-5 0  9993,2 51150  53.2189  79.3693 0001863  64.3843 295.7341 15.08834050 31431,6917.899,95.438,541.052,538.475,0.0
51150.0,STARLINK-3357,PAYLOAD,2022-08-03 15:03:42,15.08836364,0.0001874,53.219,78.1772,62.6731,297.4452,1.7804e-05,-5e-08,0.0,0 STARLINK-3357,1 51150U 22005AY  22215.62757661 -.00000005  00000-0  17804-4 0  9993,2 51150  53.2190  78.1772 0001874  62.6731 297.4452 15.08836364 30360,6917.892,95.438,541.053,538.46,0.0
51150.0,STARLINK-3357,PAYLOAD,2022-08-04 00:36:01,15.08839601,0.0001902,53.2189,76.3931,63.2632,296.8555,3.4208e-05,2.56e-06,0.0,0 STARLINK-3357,1 51150U 22005AY  22216.02501447  .00000256  00000-0  34208-4 0  9991,2 51150  53.2189  76.3931 0001902  63.2632 296.8555 15.08839601 30425,6917.882,95.438,541.062,538.431,0.0
51150.0,STARLINK-3357,PAYLOAD,2022-08-04 21:16:02,15.08833214,0.0002276999999999,53.2193,72.5301,60.9275,299.1945,-3.4122e-05,-8.31e-06,0.0,0 STARLINK-3357,1 51150U 22005AY  22216.88614029 -.00000831  00000-0 -34122-4 0  9992,2 51150  53.2193  72.5301 0002277  60.9275 299.1945 15.08833214 30559,6917.901,95.438,541.341,538.191,0.0
51150.0,STARLINK-3357,PAYLOAD,2022-08-05 00:26:48,15.08834588,0.0002387999999999,53.2195,71.9347,57.974,302.1484,-2.5308e-05,-6.91e-06,0.0,0 STARLINK-3357,1 51150U 22005AY  22217.01862001 -.00000691  00000-0 -25308-4 0  9993,2 51150  53.2195  71.9347 0002388  57.9740 302.1484 15.08834588 31683,6917.897,95.438,541.414,538.11,0.0
51150.0,STARLINK-3357,PAYLOAD,2022-08-05 21:06:49,15.08837902,0.0001815,53.2192,68.0676,64.6777,295.4403,5.9102e-05,6.53e-06,0.0,0 STARLINK-3357,1 51150U 22005AY  22217.87973767  .00000653  00000-0  59102-4 0  9994,2 51150  53.2192  68.0676 0001815  64.6777 295.4403 15.08837902 30701,6917.887,95.438,541.007,538.496,0.0
51150.0,STARLINK-3357,PAYLOAD,2022-08-06 13:00:40,15.08846128,0.0001808,53.2192,65.0936,64.4495,295.6684,9.0604e-05,1.154e-05,0.0,0 STARLINK-3357,1 51150U 22005AY  22218.54213228  .00001154  00000-0  90604-4 0  9997,2 51150  53.2192  65.0936 0001808  64.4495 295.6684 15.08846128 31911,6917.861999999999,95.437,540.977,538.476,0.0
51150.0,STARLINK-3357,PAYLOAD,2022-08-06 20:57:36,15.08843871,0.000174,53.2203,63.6077,65.3857,294.7317,8.474e-05,1.061e-05,0.0,0 STARLINK-3357,1 51150U 22005AY  22218.87333401  .00001061  00000-0  84740-4 0  9990,2 51150  53.2203  63.6077 0001740  65.3857 294.7317 15.08843871 30858,6917.869000000002,95.437,540.937,538.53,0.0
51150.0,STARLINK-3357,PAYLOAD,2022-08-07 06:29:55,15.08831247,0.0001768,53.2191,61.823,65.7239,294.3938,7.7791e-05,9.5e-06,0.0,0 STARLINK-3357,1 51150U 22005AY  22219.27078390  .00000950  00000-0  77791-4 0  9992,2 51150  53.2191  61.8230 0001768  65.7239 294.3938 15.08831247 32023,6917.906999999997,95.438,540.995,538.549,0.0
51150.0,STARLINK-3357,PAYLOAD,2022-08-07 12:51:28,15.08835542,0.0001692,53.2197,60.6331,69.2945,290.8228,7.5861e-05,9.19e-06,0.0,0 STARLINK-3357,1 51150U 22005AY  22219.53574235  .00000919  00000-0  75861-4 0  9991,2 51150  53.2197  60.6331 0001692  69.2945 290.8228 15.08835542 30952,6917.894,95.438,540.93,538.589,0.0
51150.0,STARLINK-3357,PAYLOAD,2022-08-07 19:13:00,15.08841193,0.0001674,53.2195,59.4439,64.2871,295.8293,9.1618e-05,1.17e-05,0.0,0 STARLINK-3357,1 51150U 22005AY  22219.80069926  .00001170  00000-0  91618-4 0  9995,2 51150  53.2195  59.4439 0001674  64.2871 295.8293 15.08841193 32103,6917.877,95.437,540.9,538.5840000000002,0.0
51150.0,STARLINK-3357,PAYLOAD,2022-08-07 20:48:23,15.08841916,0.0001678,53.2195,59.1465,64.3802,295.7363,9.6514e-05,1.248e-05,0.0,0 STARLINK-3357,1 51150U 22005AY  22219.86693877  .00001248  00000-0  96514-4 0  9995,2 51150  53.2195  59.1465 0001678  64.3802 295.7363 15.08841916 31006,6917.875,95.437,540.9,538.5790000000002,0.0
